[{"OBJECT_NAME":"STARLINK-35490","OBJECT_ID":"2025-243AD","EPOCH":"2026-03-09T21:23:39.699744","MEAN_MOTION":15.30205424,"ECCENTRICITY":9.684e-5,"INCLINATION":53.1591,"RA_OF_ASC_NODE":244.3867,"ARG_OF_PERICENTER":77.0658,"MEAN_ANOMALY":283.0451,"EPHEMERIS_TYPE":0,"CLASSIFICATION_TYPE":"U","NORAD_CAT_ID":66204,"ELEMENT_SET_NO":999,"REV_AT_EPOCH":2068,"BSTAR":0.0012214249,"MEAN_MOTION_DOT":0.00035997,"MEAN_MOTION_DDOT":0},{"OBJECT_NAME":"NOAA 17 DEB","OBJECT_ID":"2002-032DK","EPOCH":"2026-03-06T06:53:22.349472","MEAN_MOTION":15.29547844,"ECCENTRICITY":0.00135803,"INCLINATION":98.6735,"RA_OF_ASC_NODE":77.6727,"ARG_OF_PERICENTER":131.2945,"MEAN_ANOMALY":228.9463,"EPHEMERIS_TYPE":0,"CLASSIFICATION_TYPE":"U","NORAD_CAT_ID":49481,"ELEMENT_SET_NO":999,"REV_AT_EPOCH":24998,"BSTAR":0.011623019,"MEAN_MOTION_DOT":0.00349096,"MEAN_MOTION_DDOT":0}]
